CTC2_L_00364001-01
1 47506U 22423OK  26070.40847222  .00000000  00000+0  00000-0 0  9998
2 47506 100.0000   0.0000 0000000   0.0000   0.0000 13.29142335    19
CTC2_L_00364001-02
1 47507U 24922CG  26070.40847222  .00000000  00000+0  00000-0 0  9995
2 47507 100.0000   0.0000 0000000   0.0000  90.0000 13.29142335    19
CTC2_L_00364001-03
1 47508U 23623CB  26070.40847222  .00000000  00000+0  00000-0 0  9993
2 47508 100.0000   0.0000 0000000   0.0000 180.0000 13.29142335    10
CTC2_L_00364001-04
1 47509U 22010OW  26070.40847222  .00000000  00000+0  00000-0 0  9993
2 47509 100.0000   0.0000 0000000   0.0000 270.0000 13.29142335    11
CTC2_L_00364002-01
1 47510U 23929CU  26070.40847222  .00000000  00000+0  00000-0 0  9995
2 47510 100.0000  12.0000 0000000   0.0000  12.0000 13.29142335    10
CTC2_L_00364002-02
1 47511U 25730YJ  26070.40847222  .00000000  00000+0  00000-0 0  9998
2 47511 100.0000  12.0000 0000000   0.0000 102.0000 13.29142335    11
CTC2_L_00364002-03
1 47512U 26094QV  26070.40847222  .00000000  00000+0  00000-0 0  9993
2 47512 100.0000  12.0000 0000000   0.0000 192.0000 13.29142335    11
CTC2_L_00364002-04
1 47513U 24362HW  26070.40847222  .00000000  00000+0  00000-0 0  9990
2 47513 100.0000  12.0000 0000000   0.0000 282.0000 13.29142335    12
CTC2_L_00364003-01
1 47514U 24278JC  26070.40847222  .00000000  00000+0  00000-0 0  9997
2 47514 100.0000  24.0000 0000000   0.0000  24.0000 13.29142335    10
CTC2_L_00364003-02
1 47515U 25711KQ  26070.40847222  .00000000  00000+0  00000-0 0  9991
2 47515 100.0000  24.0000 0000000   0.0000 114.0000 13.29142335    11
CTC2_L_00364003-03
1 47516U 25866OW  26070.40847222  .00000000  00000+0  00000-0 0  9993
2 47516 100.0000  24.0000 0000000   0.0000 204.0000 13.29142335    12
CTC2_L_00364003-04
1 47517U 26630XS  26070.40847222  .00000000  00000+0  00000-0 0  9994
2 47517 100.0000  24.0000 0000000   0.0000 294.0000 13.29142335    12
CTC2_L_00364004-01
1 47518U 24323XW  26070.40847222  .00000000  00000+0  00000-0 0  9992
2 47518 100.0000  36.0000 0000000   0.0000  36.0000 13.29142335    10
CTC2_L_00364004-02
1 47519U 24383TQ  26070.40847222  .00000000  00000+0  00000-0 0  9999
2 47519 100.0000  36.0000 0000000   0.0000 126.0000 13.29142335    11
CTC2_L_00364004-03
1 47520U 25575ZL  26070.40847222  .00000000  00000+0  00000-0 0  9995
2 47520 100.0000  36.0000 0000000   0.0000 216.0000 13.29142335    13
CTC2_L_00364004-04
1 47521U 23150XV  26070.40847222  .00000000  00000+0  00000-0 0  9993
2 47521 100.0000  36.0000 0000000   0.0000 306.0000 13.29142335    14
CTC2_L_00364005-01
1 47522U 26598XG  26070.40847222  .00000000  00000+0  00000-0 0  9993
2 47522 100.0000  48.0000 0000000   0.0000  48.0000 13.29142335    11
CTC2_L_00364005-02
1 47523U 22821ZP  26070.40847222  .00000000  00000+0  00000-0 0  9999
2 47523 100.0000  48.0000 0000000   0.0000 138.0000 13.29142335    12
CTC2_L_00364005-03
1 47524U 24200GZ  26070.40847222  .00000000  00000+0  00000-0 0  9993
2 47524 100.0000  48.0000 0000000   0.0000 228.0000 13.29142335    13
CTC2_L_00364005-04
1 47525U 24136JZ  26070.40847222  .00000000  00000+0  00000-0 0  9992
2 47525 100.0000  48.0000 0000000   0.0000 318.0000 13.29142335    14
CTC2_L_00364006-01
1 47526U 23188MZ  26070.40847222  .00000000  00000+0  00000-0 0  9999
2 47526 100.0000  60.0000 0000000   0.0000  60.0000 13.29142335    13
CTC2_L_00364006-02
1 47527U 26616LN  26070.40847222  .00000000  00000+0  00000-0 0  9999
2 47527 100.0000  60.0000 0000000   0.0000 150.0000 13.29142335    14
CTC2_L_00364006-03
1 47528U 24172BS  26070.40847222  .00000000  00000+0  00000-0 0  9995
2 47528 100.0000  60.0000 0000000   0.0000 240.0000 13.29142335    15
CTC2_L_00364006-04
1 47529U 22574IZ  26070.40847222  .00000000  00000+0  00000-0 0  9990
2 47529 100.0000  60.0000 0000000   0.0000 330.0000 13.29142335    16
CTC2_L_00364007-01
1 47530U 24813RX  26070.40847222  .00000000  00000+0  00000-0 0  9990
2 47530 100.0000  72.0000 0000000   0.0000  72.0000 13.29142335    14
CTC2_L_00364007-02
1 47531U 25032CO  26070.40847222  .00000000  00000+0  00000-0 0  9995
2 47531 100.0000  72.0000 0000000   0.0000 162.0000 13.29142335    15
CTC2_L_00364007-03
1 47532U 26569SH  26070.40847222  .00000000  00000+0  00000-0 0  9992
2 47532 100.0000  72.0000 0000000   0.0000 252.0000 13.29142335    16
CTC2_L_00364007-04
1 47533U 22771N   26070.40847222  .00000000  00000+0  00000-0 0  9994
2 47533 100.0000  72.0000 0000000   0.0000 342.0000 13.29142335    17
CTC2_L_00364008-01
1 47534U 23570BY  26070.40847222  .00000000  00000+0  00000-0 0  9993
2 47534 100.0000  84.0000 0000000   0.0000  84.0000 13.29142335    14
CTC2_L_00364008-02
1 47535U 23193DP  26070.40847222  .00000000  00000+0  00000-0 0  9995
2 47535 100.0000  84.0000 0000000   0.0000 174.0000 13.29142335    15
CTC2_L_00364008-03
1 47536U 22790CY  26070.40847222  .00000000  00000+0  00000-0 0  9998
2 47536 100.0000  84.0000 0000000   0.0000 264.0000 13.29142335    16
CTC2_L_00364008-04
1 47537U 24095OD  26070.40847222  .00000000  00000+0  00000-0 0  9999
2 47537 100.0000  84.0000 0000000   0.0000 354.0000 13.29142335    17
CTC2_L_00364009-01
1 47538U 26508AT  26070.40847222  .00000000  00000+0  00000-0 0  9991
2 47538 100.0000  96.0000 0000000   0.0000  96.0000 13.29142335    14
CTC2_L_00364009-02
1 47539U 24858MK  26070.40847222  .00000000  00000+0  00000-0 0  9998
2 47539 100.0000  96.0000 0000000   0.0000 186.0000 13.29142335    15
CTC2_L_00364009-03
1 47540U 23273J   26070.40847222  .00000000  00000+0  00000-0 0  9990
2 47540 100.0000  96.0000 0000000   0.0000 276.0000 13.29142335    17
CTC2_L_00364009-04
1 47541U 25433UA  26070.40847222  .00000000  00000+0  00000-0 0  9991
2 47541 100.0000  96.0000 0000000   0.0000   6.0000 13.29142335    19
CTC2_L_00364010-01
1 47542U 26571NK  26070.40847222  .00000000  00000+0  00000-0 0  9996
2 47542 100.0000 108.0000 0000000   0.0000 108.0000 13.29142335    17
CTC2_L_00364010-02
1 47543U 26022CD  26070.40847222  .00000000  00000+0  00000-0 0  9998
2 47543 100.0000 108.0000 0000000   0.0000 198.0000 13.29142335    17
CTC2_L_00364010-03
1 47544U 22452LM  26070.40847222  .00000000  00000+0  00000-0 0  9992
2 47544 100.0000 108.0000 0000000   0.0000 288.0000 13.29142335    18
CTC2_L_00364010-04
1 47545U 23441RB  26070.40847222  .00000000  00000+0  00000-0 0  9992
2 47545 100.0000 108.0000 0000000   0.0000  18.0000 13.29142335    10
CTC2_L_00364011-01
1 47546U 22503BX  26070.40847222  .00000000  00000+0  00000-0 0  9991
2 47546 100.0000 120.0000 0000000   0.0000 120.0000 13.29142335    19
CTC2_L_00364011-02
1 47547U 24330IZ  26070.40847222  .00000000  00000+0  00000-0 0  9992
2 47547 100.0000 120.0000 0000000   0.0000 210.0000 13.29142335    10
CTC2_L_00364011-03
1 47548U 23390WQ  26070.40847222  .00000000  00000+0  00000-0 0  9998
2 47548 100.0000 120.0000 0000000   0.0000 300.0000 13.29142335    11
CTC2_L_00364011-04
1 47549U 25064YT  26070.40847222  .00000000  00000+0  00000-0 0  9999
2 47549 100.0000 120.0000 0000000   0.0000  30.0000 13.29142335    12
CTC2_L_00364012-01
1 47550U 25718RE  26070.40847222  .00000000  00000+0  00000-0 0  9997
2 47550 100.0000 132.0000 0000000   0.0000 132.0000 13.29142335    10
CTC2_L_00364012-02
1 47551U 26081NM  26070.40847222  .00000000  00000+0  00000-0 0  9992
2 47551 100.0000 132.0000 0000000   0.0000 222.0000 13.29142335    11
CTC2_L_00364012-03
1 47552U 23975IE  26070.40847222  .00000000  00000+0  00000-0 0  9992
2 47552 100.0000 132.0000 0000000   0.0000 312.0000 13.29142335    12
CTC2_L_00364012-04
1 47553U 23091RV  26070.40847222  .00000000  00000+0  00000-0 0  9992
2 47553 100.0000 132.0000 0000000   0.0000  42.0000 13.29142335    13
CTC2_L_00364013-01
1 47554U 22124UK  26070.40847222  .00000000  00000+0  00000-0 0  9999
2 47554 100.0000 144.0000 0000000   0.0000 144.0000 13.29142335    10
CTC2_L_00364013-02
1 47555U 24060LZ  26070.40847222  .00000000  00000+0  00000-0 0  9991
2 47555 100.0000 144.0000 0000000   0.0000 234.0000 13.29142335    11
CTC2_L_00364013-03
1 47556U 26360JN  26070.40847222  .00000000  00000+0  00000-0 0  9997
2 47556 100.0000 144.0000 0000000   0.0000 324.0000 13.29142335    12
CTC2_L_00364013-04
1 47557U 23330IB  26070.40847222  .00000000  00000+0  00000-0 0  9992
2 47557 100.0000 144.0000 0000000   0.0000  54.0000 13.29142335    13
CTC2_L_00364014-01
1 47558U 24207AA  26070.40847222  .00000000  00000+0  00000-0 0  9997
2 47558 100.0000 156.0000 0000000   0.0000 156.0000 13.29142335    10
CTC2_L_00364014-02
1 47559U 23128UQ  26070.40847222  .00000000  00000+0  00000-0 0  9999
2 47559 100.0000 156.0000 0000000   0.0000 246.0000 13.29142335    11
CTC2_L_00364014-03
1 47560U 25627CX  26070.40847222  .00000000  00000+0  00000-0 0  9997
2 47560 100.0000 156.0000 0000000   0.0000 336.0000 13.29142335    13
CTC2_L_00364014-04
1 47561U 26092KY  26070.40847222  .00000000  00000+0  00000-0 0  9995
2 47561 100.0000 156.0000 0000000   0.0000  66.0000 13.29142335    14
CTC2_L_00364015-01
1 47562U 25567FH  26070.40847222  .00000000  00000+0  00000-0 0  9992
2 47562 100.0000 168.0000 0000000   0.0000 168.0000 13.29142335    11
CTC2_L_00364015-02
1 47563U 22337KA  26070.40847222  .00000000  00000+0  00000-0 0  9995
2 47563 100.0000 168.0000 0000000   0.0000 258.0000 13.29142335    12
CTC2_L_00364015-03
1 47564U 22616GU  26070.40847222  .00000000  00000+0  00000-0 0  9996
2 47564 100.0000 168.0000 0000000   0.0000 348.0000 13.29142335    13
CTC2_L_00364015-04
1 47565U 22459HT  26070.40847222  .00000000  00000+0  00000-0 0  9992
2 47565 100.0000 168.0000 0000000   0.0000  78.0000 13.29142335    14
CTC2_L_00364016-01
1 47566U 23551NT  26070.40847222  .00000000  00000+0  00000-0 0  9997
2 47566 100.0000 180.0000 0000000   0.0000 180.0000 13.29142335    13
CTC2_L_00364016-02
1 47567U 25458KE  26070.40847222  .00000000  00000+0  00000-0 0  9996
2 47567 100.0000 180.0000 0000000   0.0000 270.0000 13.29142335    14
